IRIDIUM 57              
1 25273U 98019B   24184.55401731  .00000633  00000+0  21426-3 0  9990
2 25273  86.3960 291.6840 0002195  94.9236 265.2211 14.35267492374830
IRIDIUM 63              
1 25286U 98021B   24183.87486877  .00000651  00000+0  21829-3 0  9992
2 25286  86.3986 228.8681 0002201  88.9006 271.2443 14.35817311373837
IRIDIUM 69              
1 25319U 98026A   24184.17811991  .00000788  00000+0  24371-3 0  9993
2 25319  86.3973 243.0820 0004640  95.7831 264.3897 14.40061152372919
IRIDIUM 71              
1 25320U 98026B   24183.89702247  .00000715  00000+0  21928-3 0  9991
2 25320  86.3974 237.9586 0003685 126.4882 233.6657 14.40370756373152
IRIDIUM 73              
1 25344U 98032C   24183.78740389  .00000982  00000+0  24547-3 0  9997
2 25344  86.4438 195.4317 0002988  92.4481 267.7066 14.50603152379749
IRIDIUM 82              
1 25467U 98051A   24183.78310725  .00022064  00000+0  10911-2 0  9995
2 25467  86.3758 278.8442 0126820 166.2227 194.2528 15.10810627370690
